CCSDS_OMM_VERS = 2.0
CREATION_DATE  = 
ORIGINATOR     = 

OBJECT_NAME    = STARLINK-37017
OBJECT_ID      = 2026-044H
CENTER_NAME    = EARTH
REF_FRAME      = TEME
TIME_SYSTEM    = UTC
MEAN_ELEMENT_THEORY = SGP/SGP4

EPOCH          = 2026-03-28T19:55:01.626816
MEAN_MOTION    = 15.75238549
ECCENTRICITY   = .0001473
INCLINATION    = 97.2841
RA_OF_ASC_NODE = 48.9218
ARG_OF_PERICENTER = 108.6323
MEAN_ANOMALY   = 251.5102

EPHEMERIS_TYPE = 0
CLASSIFICATION_TYPE = U
NORAD_CAT_ID   = 68108
ELEMENT_SET_NO = 999
REV_AT_EPOCH   = 449
BSTAR          = .11972E-2
MEAN_MOTION_DOT = .182696E-2
MEAN_MOTION_DDOT = 0

CCSDS_OMM_VERS = 2.0
CREATION_DATE  = 
ORIGINATOR     = 

OBJECT_NAME    = STARLINK-36833
OBJECT_ID      = 2026-044J
CENTER_NAME    = EARTH
REF_FRAME      = TEME
TIME_SYSTEM    = UTC
MEAN_ELEMENT_THEORY = SGP/SGP4

EPOCH          = 2026-03-28T19:52:59.771712
MEAN_MOTION    = 15.75227375
ECCENTRICITY   = .0001248
INCLINATION    = 97.2846
RA_OF_ASC_NODE = 48.9226
ARG_OF_PERICENTER = 107.9313
MEAN_ANOMALY   = 252.2088

EPHEMERIS_TYPE = 0
CLASSIFICATION_TYPE = U
NORAD_CAT_ID   = 68109
ELEMENT_SET_NO = 999
REV_AT_EPOCH   = 449
BSTAR          = .10854E-2
MEAN_MOTION_DOT = .165203E-2
MEAN_MOTION_DDOT = 0

CCSDS_OMM_VERS = 2.0
CREATION_DATE  = 
ORIGINATOR     = 

OBJECT_NAME    = STARLINK-36830
OBJECT_ID      = 2026-044K
CENTER_NAME    = EARTH
REF_FRAME      = TEME
TIME_SYSTEM    = UTC
MEAN_ELEMENT_THEORY = SGP/SGP4

EPOCH          = 2026-03-28T19:54:00.332928
MEAN_MOTION    = 15.75265076
ECCENTRICITY   = .0001673
INCLINATION    = 97.2846
RA_OF_ASC_NODE = 48.9220
ARG_OF_PERICENTER = 119.5751
MEAN_ANOMALY   = 240.5682

EPHEMERIS_TYPE = 0
CLASSIFICATION_TYPE = U
NORAD_CAT_ID   = 68110
ELEMENT_SET_NO = 999
REV_AT_EPOCH   = 449
BSTAR          = .13102E-2
MEAN_MOTION_DOT = .200608E-2
MEAN_MOTION_DDOT = 0

CCSDS_OMM_VERS = 2.0
CREATION_DATE  = 
ORIGINATOR     = 

OBJECT_NAME    = STARLINK-36791
OBJECT_ID      = 2026-044L
CENTER_NAME    = EARTH
REF_FRAME      = TEME
TIME_SYSTEM    = UTC
MEAN_ELEMENT_THEORY = SGP/SGP4

EPOCH          = 2026-03-28T21:22:26.663232
MEAN_MOTION    = 15.75191897
ECCENTRICITY   = .0001387
INCLINATION    = 97.2846
RA_OF_ASC_NODE = 48.9920
ARG_OF_PERICENTER = 97.2515
MEAN_ANOMALY   = 262.8908

EPHEMERIS_TYPE = 0
CLASSIFICATION_TYPE = U
NORAD_CAT_ID   = 68111
ELEMENT_SET_NO = 999
REV_AT_EPOCH   = 450
BSTAR          = .48393E-3
MEAN_MOTION_DOT = .72674E-3
MEAN_MOTION_DDOT = 0

CCSDS_OMM_VERS = 2.0
CREATION_DATE  = 
ORIGINATOR     = 

OBJECT_NAME    = STARLINK-36893
OBJECT_ID      = 2026-044M
CENTER_NAME    = EARTH
REF_FRAME      = TEME
TIME_SYSTEM    = UTC
MEAN_ELEMENT_THEORY = SGP/SGP4

EPOCH          = 2026-03-28T19:49:25.886784
MEAN_MOTION    = 15.75235164
ECCENTRICITY   = .0001544
INCLINATION    = 97.2848
RA_OF_ASC_NODE = 48.9256
ARG_OF_PERICENTER = 105.1586
MEAN_ANOMALY   = 254.9850

EPHEMERIS_TYPE = 0
CLASSIFICATION_TYPE = U
NORAD_CAT_ID   = 68112
ELEMENT_SET_NO = 999
REV_AT_EPOCH   = 449
BSTAR          = .70153E-3
MEAN_MOTION_DOT = .106024E-2
MEAN_MOTION_DDOT = 0

CCSDS_OMM_VERS = 2.0
CREATION_DATE  = 
ORIGINATOR     = 

OBJECT_NAME    = STARLINK-36937
OBJECT_ID      = 2026-044N
CENTER_NAME    = EARTH
REF_FRAME      = TEME
TIME_SYSTEM    = UTC
MEAN_ELEMENT_THEORY = SGP/SGP4

EPOCH          = 2026-03-28T19:47:54.791808
MEAN_MOTION    = 15.75270235
ECCENTRICITY   = .0000993
INCLINATION    = 97.2846
RA_OF_ASC_NODE = 48.9273
ARG_OF_PERICENTER = 100.9212
MEAN_ANOMALY   = 259.2165

EPHEMERIS_TYPE = 0
CLASSIFICATION_TYPE = U
NORAD_CAT_ID   = 68113
ELEMENT_SET_NO = 999
REV_AT_EPOCH   = 449
BSTAR          = .1949E-2
MEAN_MOTION_DOT = .30215E-2
MEAN_MOTION_DDOT = 0

CCSDS_OMM_VERS = 2.0
CREATION_DATE  = 
ORIGINATOR     = 

OBJECT_NAME    = STARLINK-36229
OBJECT_ID      = 2026-044P
CENTER_NAME    = EARTH
REF_FRAME      = TEME
TIME_SYSTEM    = UTC
MEAN_ELEMENT_THEORY = SGP/SGP4

EPOCH          = 2026-03-28T19:48:25.072416
MEAN_MOTION    = 15.75224261
ECCENTRICITY   = .00014
INCLINATION    = 97.2851
RA_OF_ASC_NODE = 48.9260
ARG_OF_PERICENTER = 107.0661
MEAN_ANOMALY   = 253.0758

EPHEMERIS_TYPE = 0
CLASSIFICATION_TYPE = U
NORAD_CAT_ID   = 68114
ELEMENT_SET_NO = 999
REV_AT_EPOCH   = 449
BSTAR          = .75535E-3
MEAN_MOTION_DOT = .114223E-2
MEAN_MOTION_DDOT = 0

CCSDS_OMM_VERS = 2.0
CREATION_DATE  = 
ORIGINATOR     = 

OBJECT_NAME    = STARLINK-36392
OBJECT_ID      = 2026-044Q
CENTER_NAME    = EARTH
REF_FRAME      = TEME
TIME_SYSTEM    = UTC
MEAN_ELEMENT_THEORY = SGP/SGP4

EPOCH          = 2026-03-28T21:17:57.195456
MEAN_MOTION    = 15.74701445
ECCENTRICITY   = .0001202
INCLINATION    = 97.2849
RA_OF_ASC_NODE = 48.9952
ARG_OF_PERICENTER = 44.9797
MEAN_ANOMALY   = 315.1565

EPHEMERIS_TYPE = 0
CLASSIFICATION_TYPE = U
NORAD_CAT_ID   = 68115
ELEMENT_SET_NO = 999
REV_AT_EPOCH   = 450
BSTAR          = -.35145E-2
MEAN_MOTION_DOT = -.48525E-2
MEAN_MOTION_DDOT = 0

CCSDS_OMM_VERS = 2.0
CREATION_DATE  = 
ORIGINATOR     = 

OBJECT_NAME    = STARLINK-36805
OBJECT_ID      = 2026-044R
CENTER_NAME    = EARTH
REF_FRAME      = TEME
TIME_SYSTEM    = UTC
MEAN_ELEMENT_THEORY = SGP/SGP4

EPOCH          = 2026-03-28T19:45:52.913376
MEAN_MOTION    = 15.75280696
ECCENTRICITY   = .0001395
INCLINATION    = 97.2846
RA_OF_ASC_NODE = 48.9287
ARG_OF_PERICENTER = 113.7777
MEAN_ANOMALY   = 246.3634

EPHEMERIS_TYPE = 0
CLASSIFICATION_TYPE = U
NORAD_CAT_ID   = 68116
ELEMENT_SET_NO = 999
REV_AT_EPOCH   = 449
BSTAR          = .20345E-2
MEAN_MOTION_DOT = .316078E-2
MEAN_MOTION_DDOT = 0

CCSDS_OMM_VERS = 2.0
CREATION_DATE  = 
ORIGINATOR     = 

OBJECT_NAME    = STARLINK-36844
OBJECT_ID      = 2026-044S
CENTER_NAME    = EARTH
REF_FRAME      = TEME
TIME_SYSTEM    = UTC
MEAN_ELEMENT_THEORY = SGP/SGP4

EPOCH          = 2026-03-28T19:43:50.769696
MEAN_MOTION    = 15.75236742
ECCENTRICITY   = .0001405
INCLINATION    = 97.2847
RA_OF_ASC_NODE = 48.9310
ARG_OF_PERICENTER = 90.5726
MEAN_ANOMALY   = 269.5700

EPHEMERIS_TYPE = 0
CLASSIFICATION_TYPE = U
NORAD_CAT_ID   = 68117
ELEMENT_SET_NO = 999
REV_AT_EPOCH   = 449
BSTAR          = .10392E-2
MEAN_MOTION_DOT = .158098E-2
MEAN_MOTION_DDOT = 0

CCSDS_OMM_VERS = 2.0
CREATION_DATE  = 
ORIGINATOR     = 

OBJECT_NAME    = STARLINK-36789
OBJECT_ID      = 2026-044T
CENTER_NAME    = EARTH
REF_FRAME      = TEME
TIME_SYSTEM    = UTC
MEAN_ELEMENT_THEORY = SGP/SGP4

EPOCH          = 2026-03-28T20:00:01.999008
MEAN_MOTION    = 15.75111812
ECCENTRICITY   = .0001294
INCLINATION    = 97.2852
RA_OF_ASC_NODE = 48.9448
ARG_OF_PERICENTER = 72.8932
MEAN_ANOMALY   = 352.9455

EPHEMERIS_TYPE = 0
CLASSIFICATION_TYPE = U
NORAD_CAT_ID   = 68118
ELEMENT_SET_NO = 999
REV_AT_EPOCH   = 443
BSTAR          = .9798E-3
MEAN_MOTION_DOT = .148073E-2
MEAN_MOTION_DDOT = 0

CCSDS_OMM_VERS = 2.0
CREATION_DATE  = 
ORIGINATOR     = 

OBJECT_NAME    = STARLINK-36850
OBJECT_ID      = 2026-044U
CENTER_NAME    = EARTH
REF_FRAME      = TEME
TIME_SYSTEM    = UTC
MEAN_ELEMENT_THEORY = SGP/SGP4

EPOCH          = 2026-03-28T19:42:49.652064
MEAN_MOTION    = 15.75226262
ECCENTRICITY   = .0001671
INCLINATION    = 97.2852
RA_OF_ASC_NODE = 48.9313
ARG_OF_PERICENTER = 118.5682
MEAN_ANOMALY   = 241.5752

EPHEMERIS_TYPE = 0
CLASSIFICATION_TYPE = U
NORAD_CAT_ID   = 68119
ELEMENT_SET_NO = 999
REV_AT_EPOCH   = 449
BSTAR          = .79014E-3
MEAN_MOTION_DOT = .119578E-2
MEAN_MOTION_DDOT = 0

